ALSAT 1                 
1 27559U 02054A   12354.59645990  .00000611  00000-0  10894-3 0  6733
2 27559  97.7745 195.9273 0022268 220.2588 139.6971 14.70140889537926
NIGERIASAT 1            
1 27941U 03042C   12355.07929826  .00001019  00000-0  14254-3 0  4176
2 27941  97.8013 198.6078 0052620 162.5805 197.7233 14.78788953493822
UK-DMC                  
1 27942U 03042D   12354.63644500  .00000769  00000-0  11376-3 0  7605
2 27942  97.7877 200.7108 0065612   5.2925 354.8964 14.76544489493964
BILSAT 1                
1 27943U 03042E   12355.43043699  .00000274  00000-0  61614-4 0  2503
2 27943  97.7979 184.2711 0012360  45.6207 314.6030 14.63328797493019
BEIJING 1               
1 28890U 05043A   12355.12499644  .00000185  00000-0  47339-4 0  1327
2 28890  97.8739 211.2239 0014222 283.2468  76.7144 14.60419262380988
HJ-1A                   
1 33320U 08041A   12355.11384911  .00000909  00000-0  14325-3 0  7431
2 33320  97.8442  58.0523 0025965 266.0253  93.7988 14.74560636230888
HJ-1B                   
1 33321U 08041B   12355.15021306  .00000805  00000-0  12737-3 0  8006
2 33321  97.8472  58.3798 0035879 283.7244  75.9997 14.74549696230874
YAOGAN 4                
1 33446U 08061A   12355.14258993  .00000629  00000-0  10148-3 0  5015
2 33446  97.7660  51.1103 0016508 216.6495 143.3601 14.74587852218157
YAOGAN 5                
1 33456U 08064A   12355.26903193  .00014733  00000-0  36104-3 0  5001
2 33456  97.2375  64.3808 0009212 141.1213 290.1875 15.40791617224070
DEIMOS-1                
1 35681U 09041A   12355.08721010  .00000333  00000-0  63827-4 0  7663
2 35681  98.0186 251.0296 0001132 107.8492 252.2842 14.69856253182049
UK-DMC 2                
1 35683U 09041C   12355.06007807  .00000459  00000-0  84882-4 0  7870
2 35683  98.0193 250.0819 0001015  76.3543 283.7780 14.69880522181962
RISAT 1                 
1 38248U 12017A   12355.18113465  .00001794  00000-0  11772-3 0  7474
2 38248  97.5937 357.8497 0000352  61.1457  65.5408 15.08921400 35921
